GOES 3                  
1 10953U 78062A   16008.43343939 -.00000106  00000-0  00000+0 0  9991
2 10953  13.9887 336.9170 0003379 204.6094 337.4602  1.00279819 90698
TDRS 3                  
1 19548U 88091B   16008.49384374 -.00000294  00000-0  00000+0 0  9995
2 19548  14.7437  13.7624 0039757 303.6584 265.5197  1.00278220 87134
SKYNET 4C               
1 20776U 90079A   16006.76963757 -.00000031  00000-0  00000+0 0  9994
2 20776  13.5136  21.5673 0003361 266.4738  93.5162  1.00271804 92691
TDRS 5                  
1 21639U 91054B   16006.76152449  .00000092  00000-0  00000+0 0  9991
2 21639  13.9560  27.1825 0023372 318.3834 226.5640  1.00272884 89452
TDRS 6                  
1 22314U 93003B   16008.12722014 -.00000286  00000-0  00000+0 0  9997
2 22314  13.4425  30.0208 0008691 275.0521 162.0315  1.00270807 84142
INTELSAT 701 (IS-701)   
1 22871U 93066A   16007.39738793 -.00000210  00000-0  00000+0 0  9990
2 22871   3.1925  69.9184 0004700 211.6389 298.3894  1.00271968 81118
NATO 4B                 
1 22921U 93076A   16007.20983520  .00000137  00000-0  00000+0 0  9994
2 22921  11.8308  28.2648 0005175 265.2692 280.8514  1.00269258 80851
INTELSAT 702 (IS-702)   
1 23124U 94034A   16006.80333535  .00000159  00000-0  00000+0 0  9999
2 23124   3.5366  68.1802 0002170 201.1537 158.6027  1.00274969 93134
OPTUS B3                
1 23227U 94055A   16006.49959072 -.00000075  00000-0  00000+0 0  9999
2 23227   6.5470  54.2592 0006137 225.2487 170.0539  1.00272837 78194
ASTRA 1D                
1 23331U 94070A   16007.20969144 -.00000280  00000-0  00000+0 0  9991
2 23331   6.7300  53.3791 0003854 236.0686 204.9350  1.00270456 77922
BRASILSAT B2            
1 23536U 95016A   16008.43031407 -.00000282  00000-0  00000+0 0  9999
2 23536   6.3535  55.1671 0002727 248.1413 255.7973  1.00270935 76085
AMSC 1                  
1 23553U 95019A   16007.11653084 -.00000107  00000-0  00000+0 0  9992
2 23553   9.3678  44.7934 0004483 221.9960 137.9703  1.00271992 75926
TDRS 7                  
1 23613U 95035B   16008.03993684 -.00000192  00000-0  00000+0 0  9996
2 23613  14.6891  20.8602 0019112  11.8221 173.3663  1.00267588 74910
ECHOSTAR 1              
1 23754U 95073A   16008.25172109 -.00000234  00000-0  00000+0 0  9996
2 23754   0.0188 353.8729 0002443 323.5060 163.3200  1.00271939 73219
INMARSAT 3-F1           
1 23839U 96020A   16008.06944492  .00000015  00000-0  00000+0 0  9990
2 23839   2.9796  70.0055 0006582 223.3290 263.2330  1.00269902 72387
ASTRA 1F                
1 23842U 96021A   16007.74652498  .00000147  00000-0  00000+0 0  9997
2 23842   0.0392 355.6379 0003411 292.3876 131.7291  1.00272487 72092
MSAT M1                 
1 23846U 96022A   16007.15067257 -.00000076  00000-0  00000+0 0  9992
2 23846   6.9216  52.9936 0005649 238.0705 121.8307  1.00271430 72191
PALAPA C2               
1 23864U 96030A   16008.51962653 -.00000234  00000-0  00000+0 0  9992
2 23864   4.6083  62.4221 0000879 253.8791 124.3219  1.00271699 71951
INMARSAT 3-F2           
1 24307U 96053A   16008.29249130 -.00000117  00000-0  00000+0 0  9993
2 24307   1.5629  80.3993 0007421 205.6008 271.0779  1.00271532 70795
AMC-1 (GE-1)            
1 24315U 96054A   16007.06404317  .00000068  00000-0  00000+0 0  9991
2 24315   0.4815  87.7723 0002813 196.5078  75.6863  1.00272993 70789
AFRICASAT-2 (MEASAT-2)  
1 24653U 96063B   16008.15046971 -.00000219  00000-0  00000+0 0  9994
2 24653   6.6482  53.8222 0009933 173.4643  82.0810  1.00272902 70113
EUTELSAT 48A            
1 24665U 96067A   16008.06908664  .00000121  00000-0  00000+0 0  9998
2 24665   5.4597  58.7880 0005979 228.0656 253.3529  1.00273297 70445
INMARSAT 3-F3           
1 24674U 96070A   16008.44963808  .00000043  00000-0  00000+0 0  9998
2 24674   2.3997  74.3892 0005998 220.7748 152.2031  1.00271339 69734
AMC-2 (GE-2)            
1 24713U 97002A   16008.55923975 -.00000223  00000-0  00000+0 0  9992
2 24713   3.3508  68.8060 0005165 219.4590 299.7332  1.00272652 20094
INTELSAT 26 (IS-26)     
1 24732U 97007A   16006.89543230  .00000028  00000-0  00000-0 0  9998
2 24732   6.6150  54.0984 0003789 214.0745 222.2665  1.00273590 34490
GALAXY 25 (G-25)        
1 24812U 97026A   16007.96155345 -.00000154  00000-0  00000+0 0  9993
2 24812   0.0265  26.7578 0002933 264.5500  68.6609  1.00269766 68125
INMARSAT 3-F4           
1 24819U 97027A   16007.41709476 -.00000284  00000-0  00000+0 0  9995
2 24819   4.8362  60.7377 0004942 226.7982 275.0250  1.00269072 68118
ABS-3                   
1 24901U 97042A   16008.35429892 -.00000123  00000-0  00000+0 0  9991
2 24901   3.9154  66.4816 0007036 225.0780 287.5635  1.00271625 67295
INTELSAT 5 (IS-5)       
1 24916U 97046A   16007.47195425 -.00000133  00000-0  00000+0 0  9996
2 24916   2.5160  73.7963 0004519 219.0331 140.5481  1.00271589 67370
METEOSAT-7              
1 24932U 97049B   16006.66377275  .00000057  00000-0  00000+0 0  9996
2 24932   9.9771  42.2513 0001754 269.5686  90.4170  1.00272341 67173
AMC-3 (GE-3)            
1 24936U 97050A   16007.48061502 -.00000264  00000-0  10000-3 0  9992
2 24936   0.0236 304.7882 0002451 329.8951 297.8156  1.00270955 67200
NSS-5                   
1 24957U 97053A   16008.08124676  .00000116  00000-0  00000+0 0  9997
2 24957   2.8195  72.0491 0003767 221.1353 253.6060  1.00271214 67000
ECHOSTAR 3              
1 25004U 97059A   16008.10007988 -.00000275  00000-0  00000+0 0  9993
2 25004   1.0771  82.4060 0002034 238.9555 119.9558  1.00270855 66913
JCSAT-1B                
1 25067U 97075A   16007.50630574 -.00000199  00000-0  00000+0 0  9991
2 25067   4.6258  62.2889 0007454 209.9734 166.5195  1.00272406 66317
ASTRA 1G                
1 25071U 97076A   16007.13776036  .00000057  00000-0  00000+0 0  9992
2 25071   1.2546  79.8078 0003379 222.1049 273.6624  1.00270989 66295
BRASILSAT B3            
1 25152U 98006A   16008.15490412 -.00000166  00000-0  00000+0 0  9992
2 25152   3.0275  71.2896 0003193 214.7057 144.9858  1.00270622 65694
INMARSAT 3-F5           
1 25153U 98006B   16008.23507093 -.00000125  00000-0  00000+0 0  9991
2 25153   1.5339  74.2640 0005164 232.6504 236.9508  0.99891665 65658
NSS-806                 
1 25239U 98014A   16007.17297997 -.00000270  00000-0  00000+0 0  9997
2 25239   0.0554  22.8836 0004637 265.6475 192.4075  1.00270740 65405
CHINASAT 5A (ZX 5A)     
1 25354U 98033A   16008.40111638 -.00000264  00000-0  00000+0 0  9993
2 25354   0.1501  88.6734 0002408 321.0954 343.5524  1.00262076 69018
THOR III                
1 25358U 98035A   16007.88817557 -.00000036  00000-0  00000+0 0  9990
2 25358   4.5060  62.4865 0003122 222.3061 137.5335  1.00272699 64479
INTELSAT 805 (IS-805)   
1 25371U 98037A   16008.43296929 -.00000214  00000-0  00000+0 0  9991
2 25371   0.0243  45.5222 0003011 264.8138 251.1354  0.99534146 64334
ASTRA 2A                
1 25462U 98050A   16007.21013617  .00000158  00000-0  00000+0 0  9999
2 25462   0.0821 248.6313 0000929 261.5917  59.5983  1.00272062 63491
INTELSAT 7 (IS-7)       
1 25473U 98052A   16006.96810298 -.00000137  00000-0  00000+0 0  9992
2 25473   2.1130  76.7567 0003688 186.6010 172.8985  1.00270482 63402
AFRISTAR                
1 25515U 98063A   16008.06844631  .00000132  00000-0  00000+0 0  9996
2 25515   2.2824  70.9364 0004457 215.3763 226.3559  1.00272103 62897
INTELSAT 8 (IS-8)       
1 25522U 98065A   16007.81894365 -.00000022  00000-0  00000+0 0  9996
2 25522   0.0068  42.0400 0003279 244.3671 284.2210  1.00273312 62882
EUTELSAT 115 WEST A     
1 25558U 98070A   16007.54658545 -.00000163  00000-0  00000+0 0  9995
2 25558   2.1135  76.5211 0002115 271.3675 223.2534  1.00274629 62809
JCSAT-4A                
1 25630U 99006A   16008.02090699 -.00000149  00000-0  00000+0 0  9994
2 25630   1.2209  82.6494 0001529 202.3791 271.4619  1.00272554 61762
SKYNET 4E               
1 25639U 99009B   16004.81533891  .00000029  00000-0  00000+0 0  9991
2 25639   9.6015  32.8898 0002907 257.2670 113.1764  1.00272901 61757
ASIASAT 3S              
1 25657U 99013A   16008.51704341 -.00000191  00000-0  00000+0 0  9998
2 25657   1.4425  80.7949 0004147 198.2403 165.1067  1.00272470 61593
NIMIQ 1                 
1 25740U 99027A   16007.30103064 -.00000190  00000-0  00000+0 0  9996
2 25740   0.0120  48.3499 0005487 259.9997 179.8085  1.00271926 60961
ASTRA 1H                
1 25785U 99033A   16008.19099260 -.00000275  00000-0  00000+0 0  9996
2 25785   2.8050  72.2443 0003023 219.2641 196.7104  1.00268692 60557
TELKOM 1                
1 25880U 99042A   16007.71783766 -.00000336  00000-0  00000+0 0  9998
2 25880   0.0321 247.2062 0001520  73.8297 152.1349  1.00273893 60125
ABS-7                   
1 25894U 99046A   16008.01463991 -.00000354  00000-0  00000+0 0  9996
2 25894   0.0187  50.3303 0001905 270.2243 267.8629  1.00269444 58929
GALAXY 27 (G-27)        
1 25922U 99052A   16007.72866168  .00000002  00000-0  00000+0 0  9994
2 25922   2.1829  75.7343 0005895 200.6928 158.8182  1.00270452 59656
ABS-6                   
1 25924U 99053A   16006.26576995 -.00000111  00000-0  00000+0 0  9993
2 25924   0.0379  71.0977 0001332 232.6950  56.1930  1.00270931 59629
TELSTAR 12 (ORION 2)    
1 25949U 99059A   16008.04639373 -.00000112  00000-0  00000+0 0  9995
2 25949   0.0322 305.5064 0002512  11.1185 152.0914  1.00266603 59299
AMC-4 (GE-4)            
1 25954U 99060A   16008.42983509 -.00000265  00000-0  10000-3 0  9992
2 25954   0.0191  45.2447 0000800 357.4152 152.4868  1.00271083 59256
GALAXY 11 (G-11)        
1 26038U 99071A   16008.06321550 -.00000164  00000-0  00000+0 0  9993
2 26038   0.0383 164.8889 0005031 187.4864 109.8156  1.00486052 58870
HISPASAT 1C             
1 26071U 00007A   16007.54610140 -.00000203  00000-0  00000+0 0  9993
2 26071   0.0257  25.9835 0002071 310.4491 242.8501  1.00270998 58399
SUPERBIRD-B2            
1 26095U 00012A   16007.81399344 -.00000084  00000-0  00000+0 0  9992
2 26095   0.0136  66.8090 0002364 227.8660 267.1689  1.00271879 58196
